SENTINEL-3A             
1 41335U 16011A   26143.46071902  .00000062  00000+0  43846-4 0  9996
2 41335  98.6256 211.1979 0001193 108.3229 251.8082 14.26738274534533